STARLINK-6063
1 56811U 23078AW  26061.11117859  .00038799  00000+0  50905-3 0  9996
2 56811  70.0027 316.6464 0003235 252.3244 107.7593 15.58349723152708
